GLOBALSTAR M045         
1 25676U 99019A   25239.40200486 -.00000097  00000+0 -31319-4 0  9997
2 25676  51.9965 102.2916 0000975  48.4336 122.4725 12.27064950202130
GLOBALSTAR M019         
1 25677U 99019B   25239.43076965 -.00000047  00000+0  44853-3 0  9994
2 25677  51.9845 237.5894 0001221 101.1925  50.6759 12.13874734193795
GLOBALSTAR M044         
1 25678U 99019C   25239.49818440 -.00000038  00000+0  64249-3 0  9994
2 25678  51.9948 197.6830 0005796 177.6549 330.0544 11.90254975179814
GLOBALSTAR M042         
1 25679U 99019D   25239.40826750 -.00000072  00000+0  18948-3 0  9992
2 25679  51.9991 209.8946 0003137  81.7876  88.6263 12.22085942193960
GLOBALSTAR M025         
1 25770U 99031A   25239.61835391 -.00000083  00000+0 -48062-3 0  9995
2 25770  51.9853 353.7963 0001414 257.1140 115.4333 11.22562593489737
GLOBALSTAR M049         
1 25771U 99031B   25239.44532777 -.00000096  00000+0 -10703-2 0  9993
2 25771  51.9900  32.5401 0003612 122.8370 237.2775 11.12114953125355
GLOBALSTAR M047         
1 25772U 99031C   25239.59018987 -.00000077  00000+0 -19193-3 0  9994
2 25772  51.9860  22.3594 0016675  27.9919 332.1780 11.31929317479192
GLOBALSTAR M052         
1 25773U 99031D   25239.43274900 -.00000085  00000+0 -65639-3 0  9992
2 25773  51.9855 140.2422 0002506 307.5856 223.6588 11.15060423486455
